[{"OBJECT_NAME":"STARLINK-2379","OBJECT_ID":"2021-018M","EPOCH":"2026-03-09T16:04:01.938432","MEAN_MOTION":15.06392315,"ECCENTRICITY":0.00011711,"INCLINATION":53.055,"RA_OF_ASC_NODE":231.7042,"ARG_OF_PERICENTER":85.9686,"MEAN_ANOMALY":274.1437,"EPHEMERIS_TYPE":0,"CLASSIFICATION_TYPE":"U","NORAD_CAT_ID":47798,"ELEMENT_SET_NO":999,"REV_AT_EPOCH":27687,"BSTAR":-0.00021739496,"MEAN_MOTION_DOT":-3.517e-5,"MEAN_MOTION_DDOT":0},{"OBJECT_NAME":"OBJECT B","OBJECT_ID":"2023-069B","EPOCH":"2026-03-09T13:07:46.108416","MEAN_MOTION":15.09579619,"ECCENTRICITY":0.00116524,"INCLINATION":41.0081,"RA_OF_ASC_NODE":274.4606,"ARG_OF_PERICENTER":279.7432,"MEAN_ANOMALY":80.2064,"EPHEMERIS_TYPE":0,"CLASSIFICATION_TYPE":"U","NORAD_CAT_ID":56732,"ELEMENT_SET_NO":999,"REV_AT_EPOCH":15516,"BSTAR":0.00042419683,"MEAN_MOTION_DOT":6.772e-5,"MEAN_MOTION_DDOT":0}]
